{"type": "FeatureCollection", "features": [ {"type": "Feature", "properties": {"norad_id": 61186, "name": "BEIDOU-3 M25 (C47)", "group": "beidou", "lat": 26.774755977519813, "lon": -30.619372178936622, "alt_km": 21525.89039889946, "timestamp": "2025-12-21T05:44:51.851481+00:00", "meta": {"OBJECT_NAME": "BEIDOU-3 M25 (C47)", "OBJECT_ID": "2024-168B", "EPOCH": "2025-12-20T22:07:53.377248", "MEAN_MOTION": 1.86230245, "ECCENTRICITY": 0.00054545, "INCLINATION": 54.6348, "RA_OF_ASC_NODE": 308.4372, "ARG_OF_PERICENTER": 299.6064, "MEAN_ANOMALY": 241.0883, "EPHEMERIS_TYPE": 0, "CLASSIFICATION_TYPE": "U", "NORAD_CAT_ID": 61186, "ELEMENT_SET_NO": 999, "REV_AT_EPOCH": 846, "BSTAR": 0, "MEAN_MOTION_DOT": -6.6e-07, "MEAN_MOTION_DDOT": 0}, "tle": {"line1": "1 61186U 24168B   25354.92214557 -.00000066  00000+0  00000+0 0  9998", "line2": "2 61186  54.6348 308.4372 0005454 299.6064 241.0883  1.86230245  8460"}}, "geometry": {"type": "Point", "coordinates": [-30.619372178936622, 26.774755977519813]}}, {"type": "Feature", "properties": {"norad_id": 61187, "name": "BEIDOU-3 M27 (C49)", "group": "beidou", "lat": 9.39466935989283, "lon": 121.64391706849231, "alt_km": 21534.119203698814, "timestamp": "2025-12-21T05:44:51.851492+00:00", "meta": {"OBJECT_NAME": "BEIDOU-3 M27 (C49)", "OBJECT_ID": "2024-168C", "EPOCH": "2025-12-20T17:20:25.638144", "MEAN_MOTION": 1.86230401, "ECCENTRICITY": 0.00025275, "INCLINATION": 54.6304, "RA_OF_ASC_NODE": 308.4277, "ARG_OF_PERICENTER": 339.9286, "MEAN_ANOMALY": 201.8737, "EPHEMERIS_TYPE": 0, "CLASSIFICATION_TYPE": "U", "NORAD_CAT_ID": 61187, "ELEMENT_SET_NO": 999, "REV_AT_EPOCH": 593, "BSTAR": 0, "MEAN_MOTION_DOT": -6.7e-07, "MEAN_MOTION_DDOT": 0}, "tle": {"line1": "1 61187U 24168C   25354.72251896 -.00000067  00000+0  00000+0 0  9995", "line2": "2 61187  54.6304 308.4277 0002527 339.9286 201.8737  1.86230401  5934"}}, "geometry": {"type": "Point", "coordinates": [121.64391706849231, 9.39466935989283]}}]}